{
"type": "FeatureCollection",
"name": "bar",
"crs": { "type": "name", "properties": { "name": "urn:ogc:def:crs:OGC:1.3:CRS84" } },
"features": [
{ "type": "Feature", "properties": { "full_id": "n1028757169", "osm_id": "1028757169", "osm_type": "node", "amenity": "bar", "historic": "monument", "name": "Bodega", "addr:housename": "", "addr:postcode": "", "addr:street": "", "addr:housenumber": "", "addr:city": "", "addr:state": "", "phone": "", "opening_hours": "", "website": "", "email": "" }, "geometry": { "type": "Point", "coordinates": [ -118.4893192, 34.0183407 ] } },
{ "type": "Feature", "properties": { "full_id": "n1564077334", "osm_id": "1564077334", "osm_type": "node", "amenity": "bar", "historic": "", "name": "El Torito", "addr:housename": "El Torito", "addr:postcode": "90405", "addr:street": "Ocean Park Boulevard", "addr:housenumber": "", "addr:city": "", "addr:state": "", "phone": "", "opening_hours": "", "website": "", "email": "" }, "geometry": { "type": "Point", "coordinates": [ -118.4500688, 34.0219044 ] } },
{ "type": "Feature", "properties": { "full_id": "n1887254620", "osm_id": "1887254620", "osm_type": "node", "amenity": "bar", "historic": "", "name": "Speak Easy Cocktail", "addr:housename": "", "addr:postcode": "90405", "addr:street": "Pico Blvd", "addr:housenumber": "1326", "addr:city": "", "addr:state": "", "phone": "", "opening_hours": "", "website": "", "email": "" }, "geometry": { "type": "Point", "coordinates": [ -118.4767299, 34.0154186 ] } },
{ "type": "Feature", "properties": { "full_id": "n3439778857", "osm_id": "3439778857", "osm_type": "node", "amenity": "bar", "historic": "", "name": "Big Dean's OceanFront Cafe", "addr:housename": "", "addr:postcode": "90401", "addr:street": "Ocean Front Walk", "addr:housenumber": "1615", "addr:city": "Santa Monica", "addr:state": "CA", "phone": "(310) 393-2666", "opening_hours": "", "website": "", "email": "" }, "geometry": { "type": "Point", "coordinates": [ -118.4955622, 34.0102984 ] } },
{ "type": "Feature", "properties": { "full_id": "n4891612668", "osm_id": "4891612668", "osm_type": "node", "amenity": "bar", "historic": "", "name": "Bar Chloe", "addr:housename": "", "addr:postcode": "", "addr:street": "2nd Street", "addr:housenumber": "", "addr:city": "Los Angeles", "addr:state": "", "phone": "", "opening_hours": "", "website": "", "email": "" }, "geometry": { "type": "Point", "coordinates": [ -118.4957381, 34.0139422 ] } },
{ "type": "Feature", "properties": { "full_id": "n5492354091", "osm_id": "5492354091", "osm_type": "node", "amenity": "bar", "historic": "", "name": "The Daily Pint", "addr:housename": "", "addr:postcode": "90405", "addr:street": "Pico Boulevard", "addr:housenumber": "2310", "addr:city": "Santa Monica", "addr:state": "CA", "phone": "+1-310-450-7631", "opening_hours": "Mo-Fr 14:00-02:00; Sa-Su 11:00-02:00", "website": "https:\/\/thedailypint.net\/", "email": "" }, "geometry": { "type": "Point", "coordinates": [ -118.4660856, 34.0210856 ] } },
{ "type": "Feature", "properties": { "full_id": "n6107947447", "osm_id": "6107947447", "osm_type": "node", "amenity": "bar", "historic": "", "name": "The Gaslite", "addr:housename": "", "addr:postcode": "90403", "addr:street": "Wilshire Boulevard", "addr:housenumber": "2030", "addr:city": "Santa Monica", "addr:state": "CA", "phone": "310-829-2382", "opening_hours": "4 PM - 2 AM Daily", "website": "http:\/\/www.thegaslite.com", "email": "info@thegaslite.com" }, "geometry": { "type": "Point", "coordinates": [ -118.4822384, 34.0318667 ] } },
{ "type": "Feature", "properties": { "full_id": "n6171102185", "osm_id": "6171102185", "osm_type": "node", "amenity": "bar", "historic": "", "name": "The Chestnut Club", "addr:housename": "", "addr:postcode": "90404", "addr:street": "14th Street", "addr:housenumber": "1348", "addr:city": "", "addr:state": "", "phone": "", "opening_hours": "", "website": "", "email": "" }, "geometry": { "type": "Point", "coordinates": [ -118.4860858, 34.0242093 ] } },
{ "type": "Feature", "properties": { "full_id": "n6600055249", "osm_id": "6600055249", "osm_type": "node", "amenity": "bar", "historic": "", "name": "ONYX Rooftop Bar", "addr:housename": "", "addr:postcode": "90401", "addr:street": "Ocean Avenue", "addr:housenumber": "1301", "addr:city": "Santa Monica", "addr:state": "CA", "phone": "+1-310-394-2791", "opening_hours": "", "website": "https:\/\/www.shangrila-hotel.com\/dining.html", "email": "" }, "geometry": { "type": "Point", "coordinates": [ -118.49904, 34.0152529 ] } },
{ "type": "Feature", "properties": { "full_id": "n6600313104", "osm_id": "6600313104", "osm_type": "node", "amenity": "bar", "historic": "", "name": "Esters Wine Shop & Bar", "addr:housename": "", "addr:postcode": "90401", "addr:street": "7th Street", "addr:housenumber": "1314", "addr:city": "Santa Monica", "addr:state": "CA", "phone": "+1-310-899-6900", "opening_hours": "", "website": "https:\/\/www.esterswineshop.com\/", "email": "" }, "geometry": { "type": "Point", "coordinates": [ -118.4935844, 34.0194549 ] } }
]
}
